[{"OBJECT_NAME":"STARLINK-31914","OBJECT_ID":"2024-100T","EPOCH":"2026-03-14T18:52:32.831904","MEAN_MOTION":15.27579337,"ECCENTRICITY":0.0001075,"INCLINATION":43.0028,"RA_OF_ASC_NODE":96.8435,"ARG_OF_PERICENTER":262.8053,"MEAN_ANOMALY":97.2676,"EPHEMERIS_TYPE":0,"CLASSIFICATION_TYPE":"U","NORAD_CAT_ID":59902,"ELEMENT_SET_NO":999,"REV_AT_EPOCH":10182,"BSTAR":3.7467083e-5,"MEAN_MOTION_DOT":7.69e-6,"MEAN_MOTION_DDOT":0},{"OBJECT_NAME":"STARLINK-31850","OBJECT_ID":"2024-100U","EPOCH":"2026-03-14T10:06:14.730912","MEAN_MOTION":15.27582815,"ECCENTRICITY":0.00015164,"INCLINATION":43.0017,"RA_OF_ASC_NODE":98.3924,"ARG_OF_PERICENTER":270.4303,"MEAN_ANOMALY":89.6375,"EPHEMERIS_TYPE":0,"CLASSIFICATION_TYPE":"U","NORAD_CAT_ID":59903,"ELEMENT_SET_NO":999,"REV_AT_EPOCH":10182,"BSTAR":3.8132444e-5,"MEAN_MOTION_DOT":7.87e-6,"MEAN_MOTION_DDOT":0},{"OBJECT_NAME":"STARLINK-31924","OBJECT_ID":"2024-100V","EPOCH":"2026-03-14T18:15:32.127264","MEAN_MOTION":15.27585059,"ECCENTRICITY":5.269e-5,"INCLINATION":43.0015,"RA_OF_ASC_NODE":96.6548,"ARG_OF_PERICENTER":303.4876,"MEAN_ANOMALY":56.5925,"EPHEMERIS_TYPE":0,"CLASSIFICATION_TYPE":"U","NORAD_CAT_ID":59904,"ELEMENT_SET_NO":999,"REV_AT_EPOCH":10192,"BSTAR":6.347207e-6,"MEAN_MOTION_DOT":-8.7e-7,"MEAN_MOTION_DDOT":0},{"OBJECT_NAME":"STARLINK-31898","OBJECT_ID":"2024-100W","EPOCH":"2026-03-14T18:29:11.211360","MEAN_MOTION":15.27567106,"ECCENTRICITY":0.00022225,"INCLINATION":43.0064,"RA_OF_ASC_NODE":93.2655,"ARG_OF_PERICENTER":261.5145,"MEAN_ANOMALY":98.5455,"EPHEMERIS_TYPE":0,"CLASSIFICATION_TYPE":"U","NORAD_CAT_ID":59905,"ELEMENT_SET_NO":999,"REV_AT_EPOCH":10196,"BSTAR":5.091421e-6,"MEAN_MOTION_DOT":-1.23e-6,"MEAN_MOTION_DDOT":0},{"OBJECT_NAME":"STARLINK-31861","OBJECT_ID":"2024-100X","EPOCH":"2026-03-14T10:15:03.701088","MEAN_MOTION":15.27567983,"ECCENTRICITY":8.215e-5,"INCLINATION":43.0022,"RA_OF_ASC_NODE":91.5014,"ARG_OF_PERICENTER":351.731,"MEAN_ANOMALY":8.3528,"EPHEMERIS_TYPE":0,"CLASSIFICATION_TYPE":"U","NORAD_CAT_ID":59906,"ELEMENT_SET_NO":999,"REV_AT_EPOCH":10195,"BSTAR":-4.8156933e-5,"MEAN_MOTION_DOT":-1.586e-5,"MEAN_MOTION_DDOT":0},{"OBJECT_NAME":"STARLINK-31920","OBJECT_ID":"2024-100Y","EPOCH":"2026-03-14T00:00:02.000160","MEAN_MOTION":15.34535661,"ECCENTRICITY":0.00074646,"INCLINATION":42.9979,"RA_OF_ASC_NODE":67.7066,"ARG_OF_PERICENTER":152.7196,"MEAN_ANOMALY":281.106,"EPHEMERIS_TYPE":0,"CLASSIFICATION_TYPE":"U","NORAD_CAT_ID":59907,"ELEMENT_SET_NO":999,"REV_AT_EPOCH":587,"BSTAR":0.0033128892,"MEAN_MOTION_DOT":0.00114785,"MEAN_MOTION_DDOT":0},{"OBJECT_NAME":"STARLINK-31872","OBJECT_ID":"2024-106A","EPOCH":"2026-03-14T16:33:47.486880","MEAN_MOTION":15.27587734,"ECCENTRICITY":0.00012644,"INCLINATION":43.0007,"RA_OF_ASC_NODE":304.6205,"ARG_OF_PERICENTER":266.3874,"MEAN_ANOMALY":93.6833,"EPHEMERIS_TYPE":0,"CLASSIFICATION_TYPE":"U","NORAD_CAT_ID":59922,"ELEMENT_SET_NO":999,"REV_AT_EPOCH":10132,"BSTAR":0.00018347932,"MEAN_MOTION_DOT":4.791e-5,"MEAN_MOTION_DDOT":0},{"OBJECT_NAME":"STARLINK-31972","OBJECT_ID":"2024-106B","EPOCH":"2026-03-14T16:07:53.232096","MEAN_MOTION":15.27578755,"ECCENTRICITY":0.00010907,"INCLINATION":43.0011,"RA_OF_ASC_NODE":304.4879,"ARG_OF_PERICENTER":275.5742,"MEAN_ANOMALY":84.4985,"EPHEMERIS_TYPE":0,"CLASSIFICATION_TYPE":"U","NORAD_CAT_ID":59923,"ELEMENT_SET_NO":999,"REV_AT_EPOCH":10133,"BSTAR":4.962002e-5,"MEAN_MOTION_DOT":1.104e-5,"MEAN_MOTION_DDOT":0},{"OBJECT_NAME":"STARLINK-31958","OBJECT_ID":"2024-106C","EPOCH":"2026-03-14T21:00:20.710944","MEAN_MOTION":15.27558048,"ECCENTRICITY":0.00013415,"INCLINATION":43.0019,"RA_OF_ASC_NODE":288.7234,"ARG_OF_PERICENTER":264.2695,"MEAN_ANOMALY":95.8004,"EPHEMERIS_TYPE":0,"CLASSIFICATION_TYPE":"U","NORAD_CAT_ID":59924,"ELEMENT_SET_NO":999,"REV_AT_EPOCH":10148,"BSTAR":0.00021341256,"MEAN_MOTION_DOT":5.611e-5,"MEAN_MOTION_DDOT":0},{"OBJECT_NAME":"STARLINK-31959","OBJECT_ID":"2024-106D","EPOCH":"2026-03-14T21:40:45.223680","MEAN_MOTION":15.27604773,"ECCENTRICITY":0.00017065,"INCLINATION":42.9987,"RA_OF_ASC_NODE":299.2415,"ARG_OF_PERICENTER":291.2691,"MEAN_ANOMALY":68.7978,"EPHEMERIS_TYPE":0,"CLASSIFICATION_TYPE":"U","NORAD_CAT_ID":59925,"ELEMENT_SET_NO":999,"REV_AT_EPOCH":10136,"BSTAR":0.00014557832,"MEAN_MOTION_DOT":3.749e-5,"MEAN_MOTION_DDOT":0},{"OBJECT_NAME":"STARLINK-31957","OBJECT_ID":"2024-106E","EPOCH":"2026-03-14T21:32:42.140544","MEAN_MOTION":15.27585631,"ECCENTRICITY":0.0001522,"INCLINATION":43.0038,"RA_OF_ASC_NODE":302.7414,"ARG_OF_PERICENTER":269.4196,"MEAN_ANOMALY":90.6481,"EPHEMERIS_TYPE":0,"CLASSIFICATION_TYPE":"U","NORAD_CAT_ID":59926,"ELEMENT_SET_NO":999,"REV_AT_EPOCH":10137,"BSTAR":4.8630298e-5,"MEAN_MOTION_DOT":1.076e-5,"MEAN_MOTION_DDOT":0},{"OBJECT_NAME":"STARLINK-31968","OBJECT_ID":"2024-106F","EPOCH":"2026-03-14T21:43:47.849952","MEAN_MOTION":15.27581765,"ECCENTRICITY":0.00015427,"INCLINATION":43.0019,"RA_OF_ASC_NODE":302.7995,"ARG_OF_PERICENTER":256.6326,"MEAN_ANOMALY":103.4354,"EPHEMERIS_TYPE":0,"CLASSIFICATION_TYPE":"U","NORAD_CAT_ID":59927,"ELEMENT_SET_NO":999,"REV_AT_EPOCH":10137,"BSTAR":9.9226508e-5,"MEAN_MOTION_DOT":2.469e-5,"MEAN_MOTION_DDOT":0},{"OBJECT_NAME":"STARLINK-31970","OBJECT_ID":"2024-106G","EPOCH":"2026-03-14T22:18:57.448512","MEAN_MOTION":15.27582311,"ECCENTRICITY":4.949e-5,"INCLINATION":42.999,"RA_OF_ASC_NODE":302.9794,"ARG_OF_PERICENTER":258.0063,"MEAN_ANOMALY":102.0733,"EPHEMERIS_TYPE":0,"CLASSIFICATION_TYPE":"U","NORAD_CAT_ID":59928,"ELEMENT_SET_NO":999,"REV_AT_EPOCH":10137,"BSTAR":3.4467395e-5,"MEAN_MOTION_DOT":6.87e-6,"MEAN_MOTION_DDOT":0},{"OBJECT_NAME":"STARLINK-31932","OBJECT_ID":"2024-106H","EPOCH":"2026-03-14T21:18:47.255616","MEAN_MOTION":15.27608249,"ECCENTRICITY":0.00020812,"INCLINATION":43.0009,"RA_OF_ASC_NODE":299.9621,"ARG_OF_PERICENTER":280.3195,"MEAN_ANOMALY":79.7422,"EPHEMERIS_TYPE":0,"CLASSIFICATION_TYPE":"U","NORAD_CAT_ID":59929,"ELEMENT_SET_NO":999,"REV_AT_EPOCH":10135,"BSTAR":0.0045555387,"MEAN_MOTION_DOT":0.00127392,"MEAN_MOTION_DDOT":0},{"OBJECT_NAME":"STARLINK-31956","OBJECT_ID":"2024-106J","EPOCH":"2026-03-14T22:09:42.249024","MEAN_MOTION":15.27586468,"ECCENTRICITY":0.00017437,"INCLINATION":43.0018,"RA_OF_ASC_NODE":302.9328,"ARG_OF_PERICENTER":271.7283,"MEAN_ANOMALY":88.3369,"EPHEMERIS_TYPE":0,"CLASSIFICATION_TYPE":"U","NORAD_CAT_ID":59930,"ELEMENT_SET_NO":999,"REV_AT_EPOCH":10132,"BSTAR":5.9257378e-5,"MEAN_MOTION_DOT":1.369e-5,"MEAN_MOTION_DDOT":0},{"OBJECT_NAME":"STARLINK-31960","OBJECT_ID":"2024-106K","EPOCH":"2026-03-14T15:30:53.506368","MEAN_MOTION":15.27545293,"ECCENTRICITY":0.00012007,"INCLINATION":43.002,"RA_OF_ASC_NODE":304.2952,"ARG_OF_PERICENTER":265.3362,"MEAN_ANOMALY":94.7353,"EPHEMERIS_TYPE":0,"CLASSIFICATION_TYPE":"U","NORAD_CAT_ID":59931,"ELEMENT_SET_NO":999,"REV_AT_EPOCH":10128,"BSTAR":0.00036598007,"MEAN_MOTION_DOT":9.812e-5,"MEAN_MOTION_DDOT":0}]
