STARLINK-31914          
1 59902U 24100T   26073.78649111  .00000769  00000+0  37467-4 0  9999
2 59902  43.0028  96.8435 0001075 262.8053  97.2676 15.27579337101826
STARLINK-31850          
1 59903U 24100U   26073.42100383  .00000787  00000+0  38132-4 0  9994
2 59903  43.0017  98.3924 0001516 270.4303  89.6375 15.27582815101824
STARLINK-31924          
1 59904U 24100V   26073.76078851 -.00000087  00000+0  63472-5 0  9996
2 59904  43.0015  96.6548 0000526 303.4876  56.5925 15.27585059101926
STARLINK-31898          
1 59905U 24100W   26073.77026865 -.00000123  00000+0  50914-5 0  9994
2 59905  43.0064  93.2655 0002222 261.5145  98.5455 15.27567106101962
STARLINK-31861          
1 59906U 24100X   26073.42712617 -.00001586  00000+0 -48157-4 0  9994
2 59906  43.0022  91.5014 0000821 351.7310   8.3528 15.27567983101958
STARLINK-31920          
1 59907U 24100Y   26073.00002315  .00114785  00000+0  33129-2 0  9991
2 59907  42.9979  67.7066 0007464 152.7196 281.1060 15.34535661  5873
STARLINK-31872          
1 59922U 24106A   26073.69013295  .00004791  00000+0  18348-3 0  9990
2 59922  43.0007 304.6205 0001264 266.3874  93.6833 15.27587734101320
STARLINK-31972          
1 59923U 24106B   26073.67214389  .00001104  00000+0  49620-4 0  9999
2 59923  43.0011 304.4879 0001090 275.5742  84.4985 15.27578755101334
STARLINK-31958          
1 59924U 24106C   26073.87523971  .00005611  00000+0  21341-3 0  9998
2 59924  43.0019 288.7234 0001341 264.2695  95.8004 15.27558048101480
STARLINK-31959          
1 59925U 24106D   26073.90330120  .00003749  00000+0  14558-3 0  9997
2 59925  42.9987 299.2415 0001706 291.2691  68.7978 15.27604773101365
STARLINK-31957          
1 59926U 24106E   26073.89770996  .00001076  00000+0  48630-4 0  9995
2 59926  43.0038 302.7414 0001522 269.4196  90.6481 15.27585631101372
STARLINK-31968          
1 59927U 24106F   26073.90541493  .00002469  00000+0  99227-4 0  9991
2 59927  43.0019 302.7995 0001542 256.6326 103.4354 15.27581765101377
STARLINK-31970          
1 59928U 24106G   26073.92983158  .00000687  00000+0  34467-4 0  9997
2 59928  42.9990 302.9794 0000494 258.0063 102.0733 15.27582311101376
STARLINK-31932          
1 59929U 24106H   26073.88804694  .00127392  00000+0  45555-2 0  9991
2 59929  43.0009 299.9621 0002081 280.3195  79.7422 15.27608249101354
STARLINK-31956          
1 59930U 24106J   26073.92340566  .00001369  00000+0  59257-4 0  9992
2 59930  43.0018 302.9328 0001743 271.7283  88.3369 15.27586468101322
STARLINK-31960          
1 59931U 24106K   26073.64645262  .00009812  00000+0  36598-3 0  9996
2 59931  43.0020 304.2952 0001200 265.3362  94.7353 15.27545293101289
